STARLINK-31202          
1 59042U 24038V   26068.22581631 -.00001803  00000+0 -55995-4 0  9997
2 59042  43.0011  25.6466 0001125 255.0733 104.9994 15.27581543114793
BLUEBON                 
1 62688U 25009CH  26068.70316231  .00010452  00000+0  37313-3 0  9992
2 62688  97.4017 152.2033 0001193  43.3900 316.7434 15.29047253 63767
